{
  "norad_id": 60054,
  "name": "STARLINK-31735",
  "history": [
    {
      "epoch": "2026-03-28T21:19:33.697344Z",
      "apogee_km": 476.29415309685464,
      "perigee_km": 474.15453368544786,
      "latitude_deg": -1.543388858441633e-05,
      "longitude_deg": -157.2033818291039,
      "height_km": 476.3325123086878,
      "semi_major_axis_km": 6853.3613433911505,
      "eccentricity": 0.0001561,
      "inclination_deg": 53.1621,
      "raan_deg": 348.9896,
      "arg_perigee_deg": 101.3332,
      "mean_anomaly_deg": 258.7844,
      "mean_motion_rev_day": 15.30196894
    },
    {
      "epoch": "2026-03-29T03:35:46.894848Z",
      "apogee_km": 476.04719314715294,
      "perigee_km": 474.41197987961095,
      "latitude_deg": 2.1377752299724834e-05,
      "longitude_deg": 107.26834261712543,
      "height_km": 476.0461824366138,
      "semi_major_axis_km": 6853.366586513382,
      "eccentricity": 0.0001193,
      "inclination_deg": 53.1611,
      "raan_deg": 347.7738,
      "arg_perigee_deg": 84.2646,
      "mean_anomaly_deg": 275.8491,
      "mean_motion_rev_day": 15.30195138
    },
    {
      "epoch": "2026-03-29T23:58:28.740000Z",
      "apogee_km": 476.01925088841926,
      "perigee_km": 474.47998025456127,
      "latitude_deg": 5.221652591776802e-05,
      "longitude_deg": 156.8155045774291,
      "height_km": 476.12301768816275,
      "semi_major_axis_km": 6853.3866155714895,
      "eccentricity": 0.0001123,
      "inclination_deg": 53.1619,
      "raan_deg": 343.8322,
      "arg_perigee_deg": 88.1336,
      "mean_anomaly_deg": 271.9794,
      "mean_motion_rev_day": 15.3018843
    },
    {
      "epoch": "2026-03-29T23:58:28.740864Z",
      "apogee_km": 476.0190452868201,
      "perigee_km": 474.48018585615955,
      "latitude_deg": 5.497047385730173e-05,
      "longitude_deg": 156.8155030192514,
      "height_km": 476.1230243863874,
      "semi_major_axis_km": 6853.3866155714895,
      "eccentricity": 0.00011227,
      "inclination_deg": 53.1619,
      "raan_deg": 343.8322,
      "arg_perigee_deg": 88.1336,
      "mean_anomaly_deg": 271.9794,
      "mean_motion_rev_day": 15.3018843
    },
    {
      "epoch": "2026-03-30T09:22:47.605728Z",
      "apogee_km": 476.0795133978736,
      "perigee_km": 474.3898831393817,
      "latitude_deg": -7.593438243827069e-05,
      "longitude_deg": 13.530142858348048,
      "height_km": 476.1088672098368,
      "semi_major_axis_km": 6853.371698268627,
      "eccentricity": 0.00012327,
      "inclination_deg": 53.1625,
      "raan_deg": 342.0118,
      "arg_perigee_deg": 88.3561,
      "mean_anomaly_deg": 271.758,
      "mean_motion_rev_day": 15.30193426
    },
    {
      "epoch": "2026-03-30T23:29:16.045152Z",
      "apogee_km": 476.00250655638956,
      "perigee_km": 474.47077754739075,
      "latitude_deg": -6.02692606342359e-05,
      "longitude_deg": 158.59806674669892,
      "height_km": 475.73447810426904,
      "semi_major_axis_km": 6853.37364205189,
      "eccentricity": 0.00011175,
      "inclination_deg": 53.161,
      "raan_deg": 339.2776,
      "arg_perigee_deg": 58.4451,
      "mean_anomaly_deg": 301.6658,
      "mean_motion_rev_day": 15.30192775
    },
    {
      "epoch": "2026-03-31T21:26:00.943872Z",
      "apogee_km": 475.8923038665416,
      "perigee_km": 474.58056819088597,
      "latitude_deg": 1.6362216674693139e-06,
      "longitude_deg": -175.73904604829465,
      "height_km": 475.7162553044781,
      "semi_major_axis_km": 6853.3734360287135,
      "eccentricity": 9.57e-05,
      "inclination_deg": 53.1613,
      "raan_deg": 335.0288,
      "arg_perigee_deg": 50.2812,
      "mean_anomaly_deg": 309.8273,
      "mean_motion_rev_day": 15.30192844
    },
    {
      "epoch": "2026-04-01T20:56:48.780384Z",
      "apogee_km": 476.1096797223536,
      "perigee_km": 474.34288266846215,
      "latitude_deg": 2.758747160940572e-05,
      "longitude_deg": -173.95510070964244,
      "height_km": 475.627218766325,
      "semi_major_axis_km": 6853.363281195408,
      "eccentricity": 0.0001289,
      "inclination_deg": 53.1609,
      "raan_deg": 330.4777,
      "arg_perigee_deg": 55.7237,
      "mean_anomaly_deg": 304.3886,
      "mean_motion_rev_day": 15.30196245
    },
    {
      "epoch": "2026-04-02T15:45:26.613792Z",
      "apogee_km": 476.01562616677984,
      "perigee_km": 474.418931686876,
      "latitude_deg": -8.925962068622613e-06,
      "longitude_deg": -100.5225866631888,
      "height_km": 476.01386644854927,
      "semi_major_axis_km": 6853.354278926828,
      "eccentricity": 0.00011649,
      "inclination_deg": 53.1615,
      "raan_deg": 326.8404,
      "arg_perigee_deg": 82.6735,
      "mean_anomaly_deg": 277.4398,
      "mean_motion_rev_day": 15.3019926
    },
    {
      "epoch": "2026-04-02T22:01:40.002240Z",
      "apogee_km": 476.2404703268958,
      "perigee_km": 474.3519382731183,
      "latitude_deg": 4.312006172393112e-05,
      "longitude_deg": 163.95145150319445,
      "height_km": 476.15354393966436,
      "semi_major_axis_km": 6853.433204300007,
      "eccentricity": 0.00013778,
      "inclination_deg": 53.1623,
      "raan_deg": 325.6277,
      "arg_perigee_deg": 87.5224,
      "mean_anomaly_deg": 272.5935,
      "mean_motion_rev_day": 15.30172827
    },
    {
      "epoch": "2026-04-04T21:03:15.200064Z",
      "apogee_km": 475.7018355370692,
      "perigee_km": 474.7135832299764,
      "latitude_deg": 3.2523475125523825e-05,
      "longitude_deg": 167.51677773545174,
      "height_km": 476.27289523917494,
      "semi_major_axis_km": 6853.344709383523,
      "eccentricity": 7.21e-05,
      "inclination_deg": 53.1617,
      "raan_deg": 316.521,
      "arg_perigee_deg": 109.6484,
      "mean_anomaly_deg": 250.4595,
      "mean_motion_rev_day": 15.30202465
    },
    {
      "epoch": "2026-04-05T08:01:38.516448Z",
      "apogee_km": 475.9492996068957,
      "perigee_km": 474.5646398892468,
      "latitude_deg": 4.454298756139927e-05,
      "longitude_deg": 0.34808338701671904,
      "height_km": 476.1378550492882,
      "semi_major_axis_km": 6853.393969748071,
      "eccentricity": 0.00010102,
      "inclination_deg": 53.1611,
      "raan_deg": 314.4001,
      "arg_perigee_deg": 88.5393,
      "mean_anomaly_deg": 271.5724,
      "mean_motion_rev_day": 15.30185967
    },
    {
      "epoch": "2026-04-05T20:34:04.069056Z",
      "apogee_km": 475.92813762381957,
      "perigee_km": 474.4971582173339,
      "latitude_deg": -1.741774680707936e-05,
      "longitude_deg": 169.29954987741527,
      "height_km": 475.9253619559001,
      "semi_major_axis_km": 6853.349647920577,
      "eccentricity": 0.0001044,
      "inclination_deg": 53.1613,
      "raan_deg": 311.9731,
      "arg_perigee_deg": 74.9437,
      "mean_anomaly_deg": 285.1679,
      "mean_motion_rev_day": 15.30200811
    },
    {
      "epoch": "2026-04-05T23:42:10.402560Z",
      "apogee_km": 475.93279384702055,
      "perigee_km": 474.4942755697848,
      "latitude_deg": -1.5491785690797943e-06,
      "longitude_deg": 121.53771818600079,
      "height_km": 475.9082459410324,
      "semi_major_axis_km": 6853.350534708402,
      "eccentricity": 0.00010495,
      "inclination_deg": 53.1616,
      "raan_deg": 311.3664,
      "arg_perigee_deg": 73.5319,
      "mean_anomaly_deg": 286.5797,
      "mean_motion_rev_day": 15.30200514
    },
    {
      "epoch": "2026-04-07T13:19:27.278976Z",
      "apogee_km": 475.92109354279637,
      "perigee_km": 474.5763221991974,
      "latitude_deg": -1.242893870726962e-05,
      "longitude_deg": -91.6085665816108,
      "height_km": 476.1473755338884,
      "semi_major_axis_km": 6853.385707870997,
      "eccentricity": 9.811e-05,
      "inclination_deg": 53.161,
      "raan_deg": 304.0855,
      "arg_perigee_deg": 90.0083,
      "mean_anomaly_deg": 270.103,
      "mean_motion_rev_day": 15.30188734
    },
    {
      "epoch": "2026-04-07T18:01:36.672096Z",
      "apogee_km": 475.9663859419434,
      "perigee_km": 474.51209950323755,
      "latitude_deg": -2.5085856174222158e-05,
      "longitude_deg": -163.25104388295154,
      "height_km": 476.1424612916423,
      "semi_major_axis_km": 6853.37624272259,
      "eccentricity": 0.0001061,
      "inclination_deg": 53.1611,
      "raan_deg": 303.1753,
      "arg_perigee_deg": 90.3736,
      "mean_anomaly_deg": 269.7386,
      "mean_motion_rev_day": 15.30191904
    },
    {
      "epoch": "2026-04-08T12:50:14.853696Z",
      "apogee_km": 476.010102824539,
      "perigee_km": 474.47508286333505,
      "latitude_deg": 8.929344387017553e-06,
      "longitude_deg": -89.82283506063028,
      "height_km": 476.1816620532024,
      "semi_major_axis_km": 6853.379592843937,
      "eccentricity": 0.00011199,
      "inclination_deg": 53.1609,
      "raan_deg": 299.5351,
      "arg_perigee_deg": 93.0395,
      "mean_anomaly_deg": 267.0734,
      "mean_motion_rev_day": 15.30190782
    },
    {
      "epoch": "2026-04-09T18:37:15.639744Z",
      "apogee_km": 475.9722433689394,
      "perigee_km": 474.511103035813,
      "latitude_deg": 1.4625130338734561e-05,
      "longitude_deg": 176.43632328552187,
      "height_km": 476.1657205358464,
      "semi_major_axis_km": 6853.3786732023755,
      "eccentricity": 0.0001066,
      "inclination_deg": 53.1612,
      "raan_deg": 293.7707,
      "arg_perigee_deg": 92.0059,
      "mean_anomaly_deg": 268.1064,
      "mean_motion_rev_day": 15.3019109
    },
    {
      "epoch": "2026-04-10T11:51:50.918112Z",
      "apogee_km": 475.843486345746,
      "perigee_km": 474.64551525940624,
      "latitude_deg": 3.872060181411061e-05,
      "longitude_deg": -86.2556040981677,
      "height_km": 476.1947822809557,
      "semi_major_axis_km": 6853.381500802576,
      "eccentricity": 8.74e-05,
      "inclination_deg": 53.1607,
      "raan_deg": 290.4339,
      "arg_perigee_deg": 94.9424,
      "mean_anomaly_deg": 265.1677,
      "mean_motion_rev_day": 15.30190143
    }
  ]
}